STARLINK-32183          
1 60433U 24144J   26068.72328266 -.00002486  00000+0 -71841-4 0  9995
2 60433  53.1613 217.0151 0000926 121.7532 238.3559 15.30201447 89315
HAWK-11A                
1 62382U 24247F   26068.51231358  .00009457  00000+0  34106-3 0  9991
2 62382  44.9941 114.3328 0005466 327.3713  32.6832 15.28849427 67741
